[Satellite]
VERSION=1.1
NAME=Falconsat-3
NICKNAME=Falconsat-3
TLE1=1 30776U 07006E   18018.40248954  .00002348  00000-0  71733-4 0  9992
TLE2=2 30776 035.4352 139.7568 0002354 122.2853 237.8101 15.33769085601302
